[{"OBJECT_NAME":"STARLINK-36886","OBJECT_ID":"2026-050J","EPOCH":"2026-03-19T13:38:26.608992","MEAN_MOTION":15.98517353,"ECCENTRICITY":8.12e-5,"INCLINATION":53.1618,"RA_OF_ASC_NODE":232.5329,"ARG_OF_PERICENTER":328.5582,"MEAN_ANOMALY":31.54,"EPHEMERIS_TYPE":0,"CLASSIFICATION_TYPE":"U","NORAD_CAT_ID":68175,"ELEMENT_SET_NO":999,"REV_AT_EPOCH":203,"BSTAR":-0.0014987,"MEAN_MOTION_DOT":-0.00726912,"MEAN_MOTION_DDOT":0.00018427},{"OBJECT_NAME":"STARLINK-36905","OBJECT_ID":"2026-050K","EPOCH":"2026-03-19T13:38:05.675136","MEAN_MOTION":15.98675796,"ECCENTRICITY":7.18e-5,"INCLINATION":53.1619,"RA_OF_ASC_NODE":232.5315,"ARG_OF_PERICENTER":321.9812,"MEAN_ANOMALY":38.1167,"EPHEMERIS_TYPE":0,"CLASSIFICATION_TYPE":"U","NORAD_CAT_ID":68176,"ELEMENT_SET_NO":999,"REV_AT_EPOCH":203,"BSTAR":-0.0014521,"MEAN_MOTION_DOT":-0.00710734,"MEAN_MOTION_DDOT":0.00017733},{"OBJECT_NAME":"STARLINK-36668","OBJECT_ID":"2026-050L","EPOCH":"2026-03-19T13:37:43.637088","MEAN_MOTION":15.98826248,"ECCENTRICITY":6.96e-5,"INCLINATION":53.1621,"RA_OF_ASC_NODE":232.5297,"ARG_OF_PERICENTER":333.7333,"MEAN_ANOMALY":26.3662,"EPHEMERIS_TYPE":0,"CLASSIFICATION_TYPE":"U","NORAD_CAT_ID":68177,"ELEMENT_SET_NO":999,"REV_AT_EPOCH":203,"BSTAR":-0.0014604,"MEAN_MOTION_DOT":-0.00720821,"MEAN_MOTION_DDOT":0.00018212},{"OBJECT_NAME":"STARLINK-36677","OBJECT_ID":"2026-050M","EPOCH":"2026-03-19T13:37:24.300768","MEAN_MOTION":15.9889842,"ECCENTRICITY":9.19e-5,"INCLINATION":53.1619,"RA_OF_ASC_NODE":232.5274,"ARG_OF_PERICENTER":18.8959,"MEAN_ANOMALY":341.2106,"EPHEMERIS_TYPE":0,"CLASSIFICATION_TYPE":"U","NORAD_CAT_ID":68178,"ELEMENT_SET_NO":999,"REV_AT_EPOCH":203,"BSTAR":-0.0018795,"MEAN_MOTION_DOT":-0.00929161,"MEAN_MOTION_DDOT":0.00028745},{"OBJECT_NAME":"STARLINK-37052","OBJECT_ID":"2026-050N","EPOCH":"2026-03-19T13:37:01.873056","MEAN_MOTION":15.99173693,"ECCENTRICITY":8.47e-5,"INCLINATION":53.1613,"RA_OF_ASC_NODE":232.5262,"ARG_OF_PERICENTER":251.3193,"MEAN_ANOMALY":108.7745,"EPHEMERIS_TYPE":0,"CLASSIFICATION_TYPE":"U","NORAD_CAT_ID":68179,"ELEMENT_SET_NO":999,"REV_AT_EPOCH":203,"BSTAR":-0.0013225,"MEAN_MOTION_DOT":-0.00666179,"MEAN_MOTION_DDOT":0.00015892},{"OBJECT_NAME":"STARLINK-37035","OBJECT_ID":"2026-050P","EPOCH":"2026-03-19T13:36:44.886816","MEAN_MOTION":15.99266404,"ECCENTRICITY":5.93e-5,"INCLINATION":53.1621,"RA_OF_ASC_NODE":232.5248,"ARG_OF_PERICENTER":324.9508,"MEAN_ANOMALY":35.1483,"EPHEMERIS_TYPE":0,"CLASSIFICATION_TYPE":"U","NORAD_CAT_ID":68180,"ELEMENT_SET_NO":999,"REV_AT_EPOCH":203,"BSTAR":-0.0013647,"MEAN_MOTION_DOT":-0.0069081,"MEAN_MOTION_DDOT":0.00016965},{"OBJECT_NAME":"STARLINK-37032","OBJECT_ID":"2026-050Q","EPOCH":"2026-03-19T13:36:22.448736","MEAN_MOTION":15.99422141,"ECCENTRICITY":7.99e-5,"INCLINATION":53.1621,"RA_OF_ASC_NODE":232.5236,"ARG_OF_PERICENTER":332.8854,"MEAN_ANOMALY":27.2135,"EPHEMERIS_TYPE":0,"CLASSIFICATION_TYPE":"U","NORAD_CAT_ID":68181,"ELEMENT_SET_NO":999,"REV_AT_EPOCH":203,"BSTAR":-0.0013712,"MEAN_MOTION_DOT":-0.00700217,"MEAN_MOTION_DDOT":0.00017407},{"OBJECT_NAME":"STARLINK-37082","OBJECT_ID":"2026-050R","EPOCH":"2026-03-19T13:36:01.596960","MEAN_MOTION":15.99579072,"ECCENTRICITY":9.64e-5,"INCLINATION":53.1619,"RA_OF_ASC_NODE":232.522,"ARG_OF_PERICENTER":324.698,"MEAN_ANOMALY":35.3987,"EPHEMERIS_TYPE":0,"CLASSIFICATION_TYPE":"U","NORAD_CAT_ID":68182,"ELEMENT_SET_NO":999,"REV_AT_EPOCH":203,"BSTAR":-0.0013413,"MEAN_MOTION_DOT":-0.00691167,"MEAN_MOTION_DDOT":0.00017038},{"OBJECT_NAME":"STARLINK-37102","OBJECT_ID":"2026-050S","EPOCH":"2026-03-19T13:35:43.723392","MEAN_MOTION":15.99705953,"ECCENTRICITY":8.31e-5,"INCLINATION":53.162,"RA_OF_ASC_NODE":232.5205,"ARG_OF_PERICENTER":338.312,"MEAN_ANOMALY":21.7875,"EPHEMERIS_TYPE":0,"CLASSIFICATION_TYPE":"U","NORAD_CAT_ID":68183,"ELEMENT_SET_NO":999,"REV_AT_EPOCH":203,"BSTAR":-0.0013158,"MEAN_MOTION_DOT":-0.00683018,"MEAN_MOTION_DDOT":0.00016706},{"OBJECT_NAME":"STARLINK-36964","OBJECT_ID":"2026-050T","EPOCH":"2026-03-19T13:35:24.372384","MEAN_MOTION":15.9984909,"ECCENTRICITY":6.43e-5,"INCLINATION":53.1619,"RA_OF_ASC_NODE":232.5189,"ARG_OF_PERICENTER":330.0119,"MEAN_ANOMALY":30.0875,"EPHEMERIS_TYPE":0,"CLASSIFICATION_TYPE":"U","NORAD_CAT_ID":68184,"ELEMENT_SET_NO":999,"REV_AT_EPOCH":203,"BSTAR":-0.0012697,"MEAN_MOTION_DOT":-0.00664681,"MEAN_MOTION_DDOT":0.00015944},{"OBJECT_NAME":"STARLINK-37061","OBJECT_ID":"2026-050U","EPOCH":"2026-03-19T13:35:07.527840","MEAN_MOTION":15.99892771,"ECCENTRICITY":6.87e-5,"INCLINATION":53.1616,"RA_OF_ASC_NODE":232.5178,"ARG_OF_PERICENTER":57.4494,"MEAN_ANOMALY":302.6603,"EPHEMERIS_TYPE":0,"CLASSIFICATION_TYPE":"U","NORAD_CAT_ID":68185,"ELEMENT_SET_NO":999,"REV_AT_EPOCH":203,"BSTAR":-0.0016679,"MEAN_MOTION_DOT":-0.0087302,"MEAN_MOTION_DDOT":0.00025966},{"OBJECT_NAME":"STARLINK-37079","OBJECT_ID":"2026-050V","EPOCH":"2026-03-19T13:34:46.972416","MEAN_MOTION":16.00099925,"ECCENTRICITY":0.0001058,"INCLINATION":53.162,"RA_OF_ASC_NODE":232.5158,"ARG_OF_PERICENTER":326.7573,"MEAN_ANOMALY":33.3392,"EPHEMERIS_TYPE":0,"CLASSIFICATION_TYPE":"U","NORAD_CAT_ID":68186,"ELEMENT_SET_NO":999,"REV_AT_EPOCH":203,"BSTAR":-0.0012815,"MEAN_MOTION_DOT":-0.00680419,"MEAN_MOTION_DDOT":0.00016664},{"OBJECT_NAME":"STARLINK-37006","OBJECT_ID":"2026-050W","EPOCH":"2026-03-19T13:34:25.626432","MEAN_MOTION":16.00247413,"ECCENTRICITY":7.2e-5,"INCLINATION":53.162,"RA_OF_ASC_NODE":232.5147,"ARG_OF_PERICENTER":325.802,"MEAN_ANOMALY":34.2964,"EPHEMERIS_TYPE":0,"CLASSIFICATION_TYPE":"U","NORAD_CAT_ID":68187,"ELEMENT_SET_NO":999,"REV_AT_EPOCH":203,"BSTAR":-0.0012753,"MEAN_MOTION_DOT":-0.00682857,"MEAN_MOTION_DDOT":0.00016797},{"OBJECT_NAME":"STARLINK-36340","OBJECT_ID":"2026-050X","EPOCH":"2026-03-19T13:34:08.257440","MEAN_MOTION":16.00370058,"ECCENTRICITY":8.84e-5,"INCLINATION":53.1619,"RA_OF_ASC_NODE":232.5131,"ARG_OF_PERICENTER":330.3319,"MEAN_ANOMALY":29.7662,"EPHEMERIS_TYPE":0,"CLASSIFICATION_TYPE":"U","NORAD_CAT_ID":68188,"ELEMENT_SET_NO":999,"REV_AT_EPOCH":193,"BSTAR":-0.0012834,"MEAN_MOTION_DOT":-0.00691967,"MEAN_MOTION_DDOT":0.0001722},{"OBJECT_NAME":"STARLINK-36305","OBJECT_ID":"2026-050Y","EPOCH":"2026-03-19T13:33:49.347072","MEAN_MOTION":16.00507461,"ECCENTRICITY":6.64e-5,"INCLINATION":53.1619,"RA_OF_ASC_NODE":232.5118,"ARG_OF_PERICENTER":330.0991,"MEAN_ANOMALY":30.0002,"EPHEMERIS_TYPE":0,"CLASSIFICATION_TYPE":"U","NORAD_CAT_ID":68189,"ELEMENT_SET_NO":999,"REV_AT_EPOCH":193,"BSTAR":-0.0012521,"MEAN_MOTION_DOT":-0.00680572,"MEAN_MOTION_DDOT":0.00016745},{"OBJECT_NAME":"STARLINK-37071","OBJECT_ID":"2026-050Z","EPOCH":"2026-03-19T13:33:09.686880","MEAN_MOTION":16.00795573,"ECCENTRICITY":7.87e-5,"INCLINATION":53.162,"RA_OF_ASC_NODE":232.5085,"ARG_OF_PERICENTER":120.8561,"MEAN_ANOMALY":239.2548,"EPHEMERIS_TYPE":0,"CLASSIFICATION_TYPE":"U","NORAD_CAT_ID":68190,"ELEMENT_SET_NO":999,"REV_AT_EPOCH":203,"BSTAR":-0.001241,"MEAN_MOTION_DOT":-0.00685813,"MEAN_MOTION_DDOT":0.00017028},{"OBJECT_NAME":"STARLINK-37091","OBJECT_ID":"2026-050AA","EPOCH":"2026-03-19T13:32:49.437312","MEAN_MOTION":16.00938134,"ECCENTRICITY":7.18e-5,"INCLINATION":53.1618,"RA_OF_ASC_NODE":232.5067,"ARG_OF_PERICENTER":334.018,"MEAN_ANOMALY":26.0815,"EPHEMERIS_TYPE":0,"CLASSIFICATION_TYPE":"U","NORAD_CAT_ID":68191,"ELEMENT_SET_NO":999,"REV_AT_EPOCH":203,"BSTAR":-0.0011877,"MEAN_MOTION_DOT":-0.00661998,"MEAN_MOTION_DDOT":0.00016019},{"OBJECT_NAME":"STARLINK-37098","OBJECT_ID":"2026-050AB","EPOCH":"2026-03-19T13:32:29.433984","MEAN_MOTION":16.01069674,"ECCENTRICITY":6.47e-5,"INCLINATION":53.1618,"RA_OF_ASC_NODE":232.5054,"ARG_OF_PERICENTER":327.3796,"MEAN_ANOMALY":32.7195,"EPHEMERIS_TYPE":0,"CLASSIFICATION_TYPE":"U","NORAD_CAT_ID":68192,"ELEMENT_SET_NO":999,"REV_AT_EPOCH":203,"BSTAR":-0.0012086,"MEAN_MOTION_DOT":-0.00678632,"MEAN_MOTION_DDOT":0.00016763},{"OBJECT_NAME":"STARLINK-37090","OBJECT_ID":"2026-050AC","EPOCH":"2026-03-19T13:31:47.877312","MEAN_MOTION":16.01369308,"ECCENTRICITY":7.11e-5,"INCLINATION":53.1621,"RA_OF_ASC_NODE":232.5012,"ARG_OF_PERICENTER":333.6069,"MEAN_ANOMALY":26.4927,"EPHEMERIS_TYPE":0,"CLASSIFICATION_TYPE":"U","NORAD_CAT_ID":68193,"ELEMENT_SET_NO":999,"REV_AT_EPOCH":203,"BSTAR":-0.0011396,"MEAN_MOTION_DOT":-0.00651387,"MEAN_MOTION_DDOT":0.00015641},{"OBJECT_NAME":"STARLINK-37093","OBJECT_ID":"2026-050AD","EPOCH":"2026-03-19T13:33:27.860256","MEAN_MOTION":16.00670231,"ECCENTRICITY":0.0001079,"INCLINATION":53.1623,"RA_OF_ASC_NODE":232.5098,"ARG_OF_PERICENTER":125.0257,"MEAN_ANOMALY":235.0876,"EPHEMERIS_TYPE":0,"CLASSIFICATION_TYPE":"U","NORAD_CAT_ID":68194,"ELEMENT_SET_NO":999,"REV_AT_EPOCH":203,"BSTAR":-0.0012185,"MEAN_MOTION_DOT":-0.00668674,"MEAN_MOTION_DDOT":0.00016258},{"OBJECT_NAME":"STARLINK-37058","OBJECT_ID":"2026-050AE","EPOCH":"2026-03-19T07:32:38.613984","MEAN_MOTION":16.02049525,"ECCENTRICITY":0.0002524,"INCLINATION":53.1616,"RA_OF_ASC_NODE":233.7917,"ARG_OF_PERICENTER":340.0442,"MEAN_ANOMALY":20.049,"EPHEMERIS_TYPE":0,"CLASSIFICATION_TYPE":"U","NORAD_CAT_ID":68195,"ELEMENT_SET_NO":999,"REV_AT_EPOCH":43,"BSTAR":-0.0012605,"MEAN_MOTION_DOT":-0.00749084,"MEAN_MOTION_DDOT":0.00020203}]
